<?xml version="1.0" encoding="UTF-8"?>
<gpx creator="fabulator:gpx-builder" version="1.1" xmlns="http://www.topografix.com/GPX/1/1" xmlns:xsi="http://www.w3.org/2001/XMLSchema-instance" xsi:schemaLocation="http://www.topografix.com/GPX/1/1 https://www.topografix.com/GPX/1/1/gpx.xsd http://www.garmin.com/xmlschemas/TrackPointExtension/v2 https://www8.garmin.com/xmlschemas/TrackPointExtensionv2.xsd http://www.garmin.com/xmlschemas/GpxExtensions/v3 https://www8.garmin.com/xmlschemas/GpxExtensions/v3/GpxExtensionsv3.xsd" xmlns:gpxtpx="http://www.garmin.com/xmlschemas/TrackPointExtension/v2" xmlns:gpxx="http://www.garmin.com/xmlschemas/GpxExtensions/v3">
  <trk>
    <trkseg>
      <trkpt lat="46.321753999684006" lon="7.064117018599063">
        <ele>1951.693359375</ele>
      </trkpt>
      <trkpt lat="46.32114027859643" lon="7.066229845397174">
        <ele>1914.9143066406</ele>
      </trkpt>
      <trkpt lat="46.32111069606617" lon="7.069000809919089">
        <ele>1865.9245605469</ele>
      </trkpt>
      <trkpt lat="46.32056023692712" lon="7.069300593808293">
        <ele>1856.0916748047</ele>
      </trkpt>
      <trkpt lat="46.32026055874303" lon="7.068989727646112">
        <ele>1842.5225830078</ele>
      </trkpt>
      <trkpt lat="46.32028077216819" lon="7.0685702143236995">
        <ele>1835.2902832031</ele>
      </trkpt>
      <trkpt lat="46.31989995576441" lon="7.068480629473925">
        <ele>1814.1009521484</ele>
      </trkpt>
      <trkpt lat="46.31802072841674" lon="7.069850204978138">
        <ele>1781.8859863281</ele>
      </trkpt>
      <trkpt lat="46.31780010368675" lon="7.069780298508704">
        <ele>1776.4608154297</ele>
      </trkpt>
      <trkpt lat="46.31847070064396" lon="7.068260580301285">
        <ele>1749.6722412109</ele>
      </trkpt>
      <trkpt lat="46.318730120081455" lon="7.067270772065967">
        <ele>1736.5704345703</ele>
      </trkpt>
      <trkpt lat="46.31852029915899" lon="7.065840150695294">
        <ele>1727.5729980469</ele>
      </trkpt>
      <trkpt lat="46.317620588000864" lon="7.065799598116428">
        <ele>1699.1849365234</ele>
      </trkpt>
      <trkpt lat="46.31696072500199" lon="7.067020635120571">
        <ele>1673.8322753906</ele>
      </trkpt>
      <trkpt lat="46.31635041534901" lon="7.066900184378028">
        <ele>1658.9270019531</ele>
      </trkpt>
      <trkpt lat="46.315950023941696" lon="7.066330392379314">
        <ele>1642.0085449219</ele>
      </trkpt>
      <trkpt lat="46.31576056685299" lon="7.066710785962641">
        <ele>1634.4890136719</ele>
      </trkpt>
      <trkpt lat="46.315000699367374" lon="7.0673404559493065">
        <ele>1622.0349121094</ele>
      </trkpt>
      <trkpt lat="46.31446011736989" lon="7.067359737120569">
        <ele>1604.6983642578</ele>
      </trkpt>
      <trkpt lat="46.31397072551772" lon="7.067626627162099">
        <ele>1594.2751464844</ele>
      </trkpt>
      <trkpt lat="46.31307026138529" lon="7.067630193196237">
        <ele>1572.4407958984</ele>
      </trkpt>
      <trkpt lat="46.31277012033388" lon="7.067180474754423">
        <ele>1553.9835205078</ele>
      </trkpt>
      <trkpt lat="46.31256020953879" lon="7.067359764594585">
        <ele>1548.9979248047</ele>
      </trkpt>
      <trkpt lat="46.31219028728083" lon="7.067299985326827">
        <ele>1539.6463623047</ele>
      </trkpt>
      <trkpt lat="46.3121503861621" lon="7.066930276807398">
        <ele>1524.7045898438</ele>
      </trkpt>
      <trkpt lat="46.311760736163706" lon="7.066890107933432">
        <ele>1514.7396240234</ele>
      </trkpt>
      <trkpt lat="46.311490756925195" lon="7.067130821291357">
        <ele>1512.1599121094</ele>
      </trkpt>
      <trkpt lat="46.31117998296395" lon="7.066730522084981">
        <ele>1497.7192382812</ele>
      </trkpt>
      <trkpt lat="46.30971010681242" lon="7.065650183707476">
        <ele>1456.4294433594</ele>
      </trkpt>
      <trkpt lat="46.30986030725762" lon="7.065370052587241">
        <ele>1449.4094238281</ele>
      </trkpt>
      <trkpt lat="46.30965020786971" lon="7.065219618845731">
        <ele>1442.9165039062</ele>
      </trkpt>
      <trkpt lat="46.308790049981326" lon="7.065169726498425">
        <ele>1437.7830810547</ele>
      </trkpt>
      <trkpt lat="46.30715054133907" lon="7.064210072625428">
        <ele>1397.0701904297</ele>
      </trkpt>
      <trkpt lat="46.306809938978404" lon="7.063769788946956">
        <ele>1387.4523925781</ele>
      </trkpt>
      <trkpt lat="46.306470135226846" lon="7.062759663909674">
        <ele>1369.8575439453</ele>
      </trkpt>
      <trkpt lat="46.30623053992167" lon="7.061320502310991">
        <ele>1351.6665039062</ele>
      </trkpt>
      <trkpt lat="46.30622055148706" lon="7.058880260679871">
        <ele>1332.3786621094</ele>
      </trkpt>
      <trkpt lat="46.30595011729747" lon="7.058179919607937">
        <ele>1323.5264892578</ele>
      </trkpt>
      <trkpt lat="46.30564058478922" lon="7.0578900361433625">
        <ele>1315.1044921875</ele>
      </trkpt>
      <trkpt lat="46.304970524739474" lon="7.055270170327276">
        <ele>1297.1616210938</ele>
      </trkpt>
      <trkpt lat="46.303900375496596" lon="7.054049846716225">
        <ele>1283.7016601562</ele>
      </trkpt>
      <trkpt lat="46.30330038629472" lon="7.052740559447557">
        <ele>1270.2318115234</ele>
      </trkpt>
      <trkpt lat="46.302960355300456" lon="7.054060408845544">
        <ele>1269.2680664062</ele>
      </trkpt>
      <trkpt lat="46.303360109217465" lon="7.054689682554454">
        <ele>1270.9283447266</ele>
      </trkpt>
      <trkpt lat="46.303360127843916" lon="7.054959659930319">
        <ele>1271.58984375</ele>
      </trkpt>
      <trkpt lat="46.30315996473655" lon="7.055089575238526">
        <ele>1270.1375732422</ele>
      </trkpt>
      <trkpt lat="46.30277223745361" lon="7.054557560943067">
        <ele>1261.09375</ele>
      </trkpt>
      <trkpt lat="46.30162044847384" lon="7.051040548831224">
        <ele>1240.1801757812</ele>
      </trkpt>
      <trkpt lat="46.30129069974646" lon="7.050370583776385">
        <ele>1232.1962890625</ele>
      </trkpt>
      <trkpt lat="46.30117067275569" lon="7.050520703196526">
        <ele>1228.1622314453</ele>
      </trkpt>
      <trkpt lat="46.301070231013" lon="7.050350096542388">
        <ele>1222.3630371094</ele>
      </trkpt>
      <trkpt lat="46.300990163348615" lon="7.05061025172472">
        <ele>1219.7647705078</ele>
      </trkpt>
      <trkpt lat="46.30074067367241" lon="7.050260302610695">
        <ele>1199.8231201172</ele>
      </trkpt>
      <trkpt lat="46.30077016633004" lon="7.049160762224346">
        <ele>1202.8128662109</ele>
      </trkpt>
      <trkpt lat="46.300260349176824" lon="7.047670545987785">
        <ele>1178.4512939453</ele>
      </trkpt>
      <trkpt lat="46.3002601005137" lon="7.047080005053431">
        <ele>1180.8890380859</ele>
      </trkpt>
      <trkpt lat="46.2999503868632" lon="7.045969951432198">
        <ele>1186.5792236328</ele>
      </trkpt>
      <trkpt lat="46.29946068720892" lon="7.045100027695298">
        <ele>1183.6092529297</ele>
      </trkpt>
      <trkpt lat="46.29890037700534" lon="7.044619992375374">
        <ele>1174.1115722656</ele>
      </trkpt>
      <trkpt lat="46.29838999826461" lon="7.0434997621923685">
        <ele>1170.228515625</ele>
      </trkpt>
      <trkpt lat="46.298060324043036" lon="7.0431205979548395">
        <ele>1151.8187255859</ele>
      </trkpt>
      <trkpt lat="46.297994123306125" lon="7.04168955842033">
        <ele>1127.6641845703</ele>
      </trkpt>
      <trkpt lat="46.297740653622895" lon="7.0417498159222305">
        <ele>1117.2373046875</ele>
      </trkpt>
      <trkpt lat="46.297339919023216" lon="7.042910408694297">
        <ele>1099.5891113281</ele>
      </trkpt>
      <trkpt lat="46.29537028959021" lon="7.040479763876647">
        <ele>1059.2972412109</ele>
      </trkpt>
      <trkpt lat="46.29490037634969" lon="7.040130220819265">
        <ele>1057.8471679688</ele>
      </trkpt>
      <trkpt lat="46.29515061201528" lon="7.039410711731762">
        <ele>1051.2678222656</ele>
      </trkpt>
      <trkpt lat="46.29483033018187" lon="7.038639600854367">
        <ele>1061.6335449219</ele>
      </trkpt>
      <trkpt lat="46.29434980871156" lon="7.038090302143246">
        <ele>1057.3843994141</ele>
      </trkpt>
      <trkpt lat="46.29410041170195" lon="7.038029852788895">
        <ele>1042.4045410156</ele>
      </trkpt>
      <trkpt lat="46.29374039499089" lon="7.037470591720194">
        <ele>1038.1091308594</ele>
      </trkpt>
      <trkpt lat="46.29374028136954" lon="7.036680268589407">
        <ele>1040.5064697266</ele>
      </trkpt>
      <trkpt lat="46.29400984942913" lon="7.036090390756726">
        <ele>1044.4172363281</ele>
      </trkpt>
      <trkpt lat="46.29403066076338" lon="7.035620451439172">
        <ele>1044.1157226562</ele>
      </trkpt>
      <trkpt lat="46.293819966726005" lon="7.034560463391244">
        <ele>1036.4490966797</ele>
      </trkpt>
      <trkpt lat="46.29347043670714" lon="7.033920689020306">
        <ele>1023.3498535156</ele>
      </trkpt>
      <trkpt lat="46.292670571710914" lon="7.033630778081715">
        <ele>1006.017578125</ele>
      </trkpt>
      <trkpt lat="46.29294026270509" lon="7.033330286387354">
        <ele>1000.3179931641</ele>
      </trkpt>
      <trkpt lat="46.29262008564547" lon="7.033100387081504">
        <ele>986.30047607422</ele>
      </trkpt>
      <trkpt lat="46.291790093295276" lon="7.033939714543521">
        <ele>981.94763183594</ele>
      </trkpt>
      <trkpt lat="46.291770476382226" lon="7.036000595893711">
        <ele>970.48645019531</ele>
      </trkpt>
      <trkpt lat="46.292350478004664" lon="7.037200560327619">
        <ele>989.54779052734</ele>
      </trkpt>
      <trkpt lat="46.29256061092019" lon="7.038109997753054">
        <ele>982.14031982422</ele>
      </trkpt>
      <trkpt lat="46.2924799635075" lon="7.038960591424257">
        <ele>954.58282470703</ele>
      </trkpt>
      <trkpt lat="46.29269997868687" lon="7.040379966143519">
        <ele>954.9130859375</ele>
      </trkpt>
      <trkpt lat="46.292210412211716" lon="7.040069517213851">
        <ele>951.87786865234</ele>
      </trkpt>
      <trkpt lat="46.29143059346825" lon="7.038830767385662">
        <ele>934.62188720703</ele>
      </trkpt>
      <trkpt lat="46.29133011447266" lon="7.038400676567107">
        <ele>919.24450683594</ele>
      </trkpt>
      <trkpt lat="46.29078038735315" lon="7.037870092317462">
        <ele>891.41424560547</ele>
      </trkpt>
      <trkpt lat="46.290590070188046" lon="7.037980502936989">
        <ele>898.130859375</ele>
      </trkpt>
      <trkpt lat="46.29015979124233" lon="7.037900633178651">
        <ele>892.73394775391</ele>
      </trkpt>
      <trkpt lat="46.289740504231304" lon="7.038129522930831">
        <ele>908.28454589844</ele>
      </trkpt>
      <trkpt lat="46.28931008698419" lon="7.038010725285858">
        <ele>914.35668945312</ele>
      </trkpt>
      <trkpt lat="46.28849027259275" lon="7.036660775542259">
        <ele>915.01177978516</ele>
      </trkpt>
      <trkpt lat="46.28804034087807" lon="7.0366199924610555">
        <ele>909.95227050781</ele>
      </trkpt>
      <trkpt lat="46.28773008612916" lon="7.03689997876063">
        <ele>909.93505859375</ele>
      </trkpt>
      <trkpt lat="46.28684032894671" lon="7.035869804676622">
        <ele>894.28741455078</ele>
      </trkpt>
      <trkpt lat="46.286390041932464" lon="7.035730415489525">
        <ele>879.90167236328</ele>
      </trkpt>
      <trkpt lat="46.2860201112926" lon="7.035170023329556">
        <ele>861.91003417969</ele>
      </trkpt>
      <trkpt lat="46.285280014853925" lon="7.03498997958377">
        <ele>851.05249023438</ele>
      </trkpt>
      <trkpt lat="46.2847104370594" lon="7.035200525075197">
        <ele>840.18005371094</ele>
      </trkpt>
      <trkpt lat="46.28444018913433" lon="7.035599573981017">
        <ele>827.29907226562</ele>
      </trkpt>
      <trkpt lat="46.28523030085489" lon="7.035680633969605">
        <ele>827.52545166016</ele>
      </trkpt>
      <trkpt lat="46.28552974341437" lon="7.035900289192796">
        <ele>825.03192138672</ele>
      </trkpt>
      <trkpt lat="46.28589045442641" lon="7.037410555407405">
        <ele>808.59509277344</ele>
      </trkpt>
      <trkpt lat="46.28572007827461" lon="7.038069673348218">
        <ele>799.26049804688</ele>
      </trkpt>
      <trkpt lat="46.28586015291512" lon="7.038250295445323">
        <ele>804.60998535156</ele>
      </trkpt>
      <trkpt lat="46.28564030304551" lon="7.038150709588081">
        <ele>793.71173095703</ele>
      </trkpt>
      <trkpt lat="46.28560988884419" lon="7.037439877633005">
        <ele>783.65313720703</ele>
      </trkpt>
      <trkpt lat="46.28540012892336" lon="7.036889973562211">
        <ele>778.29345703125</ele>
      </trkpt>
      <trkpt lat="46.284990075044334" lon="7.036680215969682">
        <ele>772.57946777344</ele>
      </trkpt>
      <trkpt lat="46.285260397940874" lon="7.03705968754366">
        <ele>769.79418945312</ele>
      </trkpt>
      <trkpt lat="46.28531009377912" lon="7.037880660966039">
        <ele>761.73590087891</ele>
      </trkpt>
      <trkpt lat="46.28500047000125" lon="7.038339679595083">
        <ele>752.41253662109</ele>
      </trkpt>
      <trkpt lat="46.28526019630954" lon="7.039030646439642">
        <ele>755.66497802734</ele>
      </trkpt>
      <trkpt lat="46.28508979547769" lon="7.039940175134689">
        <ele>747.70166015625</ele>
      </trkpt>
      <trkpt lat="46.28478976292536" lon="7.0400604554452">
        <ele>756.22332763672</ele>
      </trkpt>
      <trkpt lat="46.28442022204399" lon="7.0393495368771255">
        <ele>735.97644042969</ele>
      </trkpt>
      <trkpt lat="46.283829749561846" lon="7.03925008373335">
        <ele>744.72534179688</ele>
      </trkpt>
      <trkpt lat="46.28342975117266" lon="7.03883004700765">
        <ele>756.86737060547</ele>
      </trkpt>
      <trkpt lat="46.283239741344005" lon="7.038520050235093">
        <ele>743.21038818359</ele>
      </trkpt>
      <trkpt lat="46.28314999816939" lon="7.0378200695849955">
        <ele>731.06774902344</ele>
      </trkpt>
      <trkpt lat="46.282550575211644" lon="7.0374806695617735">
        <ele>750.57446289062</ele>
      </trkpt>
      <trkpt lat="46.28228005487472" lon="7.03654070943594">
        <ele>727.56579589844</ele>
      </trkpt>
      <trkpt lat="46.28156012063846" lon="7.035959599073976">
        <ele>725.08709716797</ele>
      </trkpt>
      <trkpt lat="46.281689850613475" lon="7.035509716253728">
        <ele>726.01403808594</ele>
      </trkpt>
      <trkpt lat="46.28132018074393" lon="7.034519917797297">
        <ele>718.88293457031</ele>
      </trkpt>
      <trkpt lat="46.281080501619726" lon="7.034159718081355">
        <ele>714.75305175781</ele>
      </trkpt>
      <trkpt lat="46.28030025167391" lon="7.03357001952827">
        <ele>690.88568115234</ele>
      </trkpt>
      <trkpt lat="46.2804900938645" lon="7.031830050051212">
        <ele>678.90942382812</ele>
      </trkpt>
      <trkpt lat="46.28017029026523" lon="7.030459779780358">
        <ele>650.62908935547</ele>
      </trkpt>
      <trkpt lat="46.280700450763106" lon="7.0300496919080615">
        <ele>629.74554443359</ele>
      </trkpt>
      <trkpt lat="46.280430055223405" lon="7.029409503098577">
        <ele>622.68927001953</ele>
      </trkpt>
      <trkpt lat="46.27781988773495" lon="7.026800740044564">
        <ele>589.04016113281</ele>
      </trkpt>
      <trkpt lat="46.27733993018046" lon="7.025929970666766">
        <ele>582.27972412109</ele>
      </trkpt>
      <trkpt lat="46.277179991360754" lon="7.025980487000197">
        <ele>585.220703125</ele>
      </trkpt>
      <trkpt lat="46.276820107828826" lon="7.0257198652252555">
        <ele>584.49853515625</ele>
      </trkpt>
      <trkpt lat="46.276079684030265" lon="7.025699555873871">
        <ele>583.34118652344</ele>
      </trkpt>
      <trkpt lat="46.27557986136526" lon="7.0243204310536385">
        <ele>573.87969970703</ele>
      </trkpt>
      <trkpt lat="46.27524042641744" lon="7.024239996448159">
        <ele>601.04119873047</ele>
      </trkpt>
      <trkpt lat="46.27493516821414" lon="7.023423737380654">
        <ele>595.11920166016</ele>
      </trkpt>
      <trkpt lat="46.27453996287659" lon="7.023099847603589">
        <ele>619.869140625</ele>
      </trkpt>
      <trkpt lat="46.27434035949409" lon="7.022639545612037">
        <ele>606.26593017578</ele>
      </trkpt>
      <trkpt lat="46.272909954190254" lon="7.021399970166385">
        <ele>597.36212158203</ele>
      </trkpt>
      <trkpt lat="46.27223040768877" lon="7.02032979298383">
        <ele>565.30773925781</ele>
      </trkpt>
      <trkpt lat="46.27119995607063" lon="7.02093964163214">
        <ele>555.53594970703</ele>
      </trkpt>
      <trkpt lat="46.27077985741198" lon="7.02094028191641">
        <ele>555.33978271484</ele>
      </trkpt>
      <trkpt lat="46.27050988283008" lon="7.020669951103628">
        <ele>551.82165527344</ele>
      </trkpt>
      <trkpt lat="46.26975046750158" lon="7.020380048081279">
        <ele>551.65936279297</ele>
      </trkpt>
      <trkpt lat="46.2691699359566" lon="7.020540182944387">
        <ele>553.357421875</ele>
      </trkpt>
      <trkpt lat="46.26879006996751" lon="7.020959494635463">
        <ele>551.99182128906</ele>
      </trkpt>
      <trkpt lat="46.26787646440789" lon="7.023983638733625">
        <ele>547.89727783203</ele>
      </trkpt>
      <trkpt lat="46.26743008103222" lon="7.024420286528766">
        <ele>543.28369140625</ele>
      </trkpt>
      <trkpt lat="46.26753997430205" lon="7.025440279394388">
        <ele>554.99920654297</ele>
      </trkpt>
      <trkpt lat="46.2671703225933" lon="7.0254599577747285">
        <ele>556.16009521484</ele>
      </trkpt>
      <trkpt lat="46.266549887601286" lon="7.027009522076696">
        <ele>568.61029052734</ele>
      </trkpt>
      <trkpt lat="46.26653038198128" lon="7.027580391615629">
        <ele>577.54418945312</ele>
      </trkpt>
      <trkpt lat="46.26596985757351" lon="7.028050288558006">
        <ele>566.53228759766</ele>
      </trkpt>
      <trkpt lat="46.26471979729831" lon="7.03012983314693">
        <ele>526.53497314453</ele>
      </trkpt>
      <trkpt lat="46.2644996936433" lon="7.030210609547794">
        <ele>521.82250976562</ele>
      </trkpt>
      <trkpt lat="46.26425986317918" lon="7.030060661491007">
        <ele>519.70788574219</ele>
      </trkpt>
      <trkpt lat="46.26345996372402" lon="7.02901999047026">
        <ele>515.15472412109</ele>
      </trkpt>
      <trkpt lat="46.262360038701445" lon="7.029090548865497">
        <ele>502.2135925293</ele>
      </trkpt>
      <trkpt lat="46.26164983632043" lon="7.028970102779567">
        <ele>490.30294799805</ele>
      </trkpt>
      <trkpt lat="46.26100006932393" lon="7.0293900356628">
        <ele>487.93783569336</ele>
      </trkpt>
      <trkpt lat="46.26010006200522" lon="7.030759906861931">
        <ele>480.09341430664</ele>
      </trkpt>
      <trkpt lat="46.25949997920543" lon="7.030990082770586">
        <ele>478.65615844727</ele>
      </trkpt>
      <trkpt lat="46.25894134538248" lon="7.030990389641374">
        <ele>484.45123291016</ele>
      </trkpt>
    </trkseg>
  </trk>
</gpx>