<?xml version="1.0"?>
<gpx version="1.1" creator="Organic Maps" xmlns="http://www.topografix.com/GPX/1/1"
    xmlns:gpxx="http://www.garmin.com/xmlschemas/GpxExtensions/v3"
    xmlns:gpx_style="http://www.topografix.com/GPX/gpx_style/0/2"
    xmlns:xsi="http://www.w3.org/2001/XMLSchema-instance"
    xsi:schemaLocation="http://www.topografix.com/GPX/1/1 https://www.topografix.com/GPX/1/1/gpx.xsd http://www.topografix.com/GPX/gpx_style/0/2 https://www.topografix.com/GPX/gpx_style/0/2/gpx_style.xsd http://www.garmin.com/xmlschemas/GpxExtensions/v3 https://www.garmin.com/xmlschemas/GpxExtensionsv3.xsd">
<metadata>
  <name>To add to Alpine MTB map</name>
</metadata>
<wpt lat="47.140627" lon="7.219562">
  <name>Schnürli</name>
  <desc>⚠️ shared with hikers</desc>
  <extensions>
    <xsi:gpx><color>#FF804633</color></xsi:gpx>
  </extensions>
</wpt>
<wpt lat="47.142921" lon="7.226857">
  <name>Michelsbodenweg</name>
  <extensions>
    <xsi:gpx><color>#FF804633</color></xsi:gpx>
  </extensions>
</wpt>
<wpt lat="47.1439" lon="7.230039">
  <name>Path</name>
  <extensions>
    <xsi:gpx><color>#FF804633</color></xsi:gpx>
  </extensions>
</wpt>
<wpt lat="47.143842" lon="7.231312">
  <name>Path</name>
  <extensions>
    <xsi:gpx><color>#FF804633</color></xsi:gpx>
  </extensions>
</wpt>
<wpt lat="47.143296" lon="7.233019">
  <name>Path</name>
  <extensions>
    <xsi:gpx><color>#FF804633</color></xsi:gpx>
  </extensions>
</wpt>
<wpt lat="47.14148" lon="7.234311">
  <name>Guidepost</name>
  <extensions>
    <xsi:gpx><color>#FF804633</color></xsi:gpx>
  </extensions>
</wpt>
<wpt lat="47.140254" lon="7.236507">
  <name>Guidepost</name>
  <extensions>
    <xsi:gpx><color>#FF804633</color></xsi:gpx>
  </extensions>
</wpt>
<wpt lat="47.140623" lon="7.235285">
  <name>Path</name>
  <extensions>
    <xsi:gpx><color>#FF804633</color></xsi:gpx>
  </extensions>
</wpt>
</gpx>